{
  "norad_id": 68641,
  "name": "QIANFAN GROUP 7 OBJECT F",
  "history": [
    {
      "epoch": "2026-04-15T14:29:34.095840Z",
      "apogee_km": 815.281834886493,
      "perigee_km": 794.6379018107327,
      "latitude_deg": 7.559066238931755e-05,
      "longitude_deg": -93.36971892092447,
      "height_km": 818.2178351152289,
      "semi_major_axis_km": 7183.096868348613,
      "eccentricity": 0.00143698,
      "inclination_deg": 88.9914,
      "raan_deg": 327.7859,
      "arg_perigee_deg": 189.1345,
      "mean_anomaly_deg": 170.959,
      "mean_motion_rev_day": 14.26051393
    }
  ]
}