QIANFAN GROUP 7 OBJECT F
1 68641U 26075F   26105.60386685  .00000175  00000+0  66965-4 0  9999
2 68641  88.9914 327.7859 0014369 189.1345 170.9590 14.26051393  1142
